#aV2024  4  5  0  0  0.00000000     288 DD+AD WGS84 FIT  NGA
## 2308 432000.00000000   300.00000000 60405 0.0000000000000
+   32     1  2  3  4  5  6  7  8  9 10 11 12 13 14 15 16 17
+         18 19 20 21 22 23 24 25 26 27 28 29 30 31 32  0  0
+          0  0  0  0  0  0  0  0  0  0  0  0  0  0  0  0  0
+          0  0  0  0  0  0  0  0  0  0  0  0  0  0  0  0  0
+          0  0  0  0  0  0  0  0  0  0  0  0  0  0  0  0  0
++         2  2  2  2  2  2  2  2  2  2  2  2  2  2  2  2  2
++         2  2  2  2  2  2  2  2  2  2  2  2  2  2  2  0  0
++         0  0  0  0  0  0  0  0  0  0  0  0  0  0  0  0  0
++         0  0  0  0  0  0  0  0  0  0  0  0  0  0  0  0  0
++         0  0  0  0  0  0  0  0  0  0  0  0  0  0  0  0  0
%c cc cc ccc ccc cccc cccc cccc cccc ccccc ccccc ccccc ccccc
%c cc cc ccc ccc cccc cccc cccc cccc ccccc ccccc ccccc ccccc
%f  0.0000000  0.000000000  0.00000000000  0.000000000000000
%f  0.0000000  0.000000000  0.00000000000  0.000000000000000
%i    0    0    0    0      0      0      0      0         0
%i    0    0    0    0      0      0      0      0         0
/*      NGA, ST. LOUIS,MO.                                  
/*   EPHEMERIS COMPUTED FROM 2 DAYS OF DATA                 
/*   EPOCHA v9 SMOOTHER                                     
/*   G2296 IERS2010 SATIGS SATAPC                           
*  2024  4  5 16 10  0.00000000
P  1  10766.975628 -23289.477486   5806.777489    178.070691                    
V  1   -177.526998   8152.554465  31486.420708      0.023420                    
P  2  14176.848187 -15922.678515  16148.155323   -458.433704                    
V  2  -1729.572387  19719.962802  21884.496078      0.063829                    
P  3  21254.224877 -12454.394569  -9915.462163    293.777135                    
V  3  12467.586038  -1302.437008  28905.215948      0.215449                    
P  4  12110.110126  -9163.687293 -21778.941327    331.832539                    
V  4  18796.552785  20314.378492   1772.373292      0.088556                    
P  5 -25777.187571   5142.884104  -4312.193184   -168.037777                    
V  5   4268.170417  -3852.488654 -31287.461143     -0.013752                    
P  6  -7319.431857 -17848.283448 -18139.810223    335.877180                    
V  6   7422.225157 -21948.186903  18643.204390     -0.175322                    
P  7   4643.305346 -25756.650921   3096.767521   -100.588572                    
V  7   4241.071270  -2363.114246 -31514.601915     -0.085751                    
P  8  18780.904033   -704.923486  18824.183936    103.228901                    
V  8  16621.783461  17363.899118 -15422.330150      0.241435                    
P  9   -631.178432 -18839.324661 -18768.884113    149.720108                    
V  9  18176.863174  15276.385395 -16065.575501      0.134860                    
P 10   9701.607559  12351.391371  21676.376408     -5.672486                    
V 10 -25918.902342   7252.422742   7229.613261     -0.037377                    
P 11 -14048.840558  -5541.922157 -21827.038549   -627.949505                    
V 11   8539.983871 -26402.736352   1159.187047     -0.108829                    
P 12 -22628.046384  10781.918610  -8980.449193   -493.833008                    
V 12 -11294.971374   -345.093106  29028.595220     -0.034841                    
P 13 -19824.040864  -9401.797518  14926.329514    640.237445                    
V 13 -10140.511061 -16396.472871 -23254.400468      0.031843                    
P 14  -5307.487480 -14682.441465  21522.244008    368.761379                    
V 14  26524.385323  -6507.483160   1905.871715      0.095921                    
P 15 -18655.049579   3001.577619  18250.163781    145.235353                    
V 15 -18396.017810 -15849.911946 -15577.257387      0.040394                    
P 16  25556.274228   1340.197512  -8270.110921   -324.082316                    
V 16  -9393.513658   3833.569468 -29174.050053      0.092371                    
P 17 -10823.854649 -22310.589930   9713.508521    711.147097                    
V 17   9527.845827   7290.689443  28755.443871      0.005478                    
P 18  -4892.416183  25754.090251   3586.747145   -589.097669                    
V 18  -3665.828250   3685.861365 -31756.393778     -0.069039                    
P 19 -16930.379529 -20732.190115   -208.793641    464.000343                    
V 19   1727.726348  -1446.883063  31679.386786      0.053330                    
P 20 -21796.137901  -1521.378505 -14934.254583    381.286310                    
V 20  16361.067607 -10227.227951 -22891.285912     -0.013999                    
P 21  15371.888361 -10051.526582  19260.288099    128.465435                    
V 21  -2345.431376  23796.204167  15634.693722     -0.015742                    
P 22 -13070.669328 -11978.531061  20110.425047      5.009281                    
V 22  24133.806270  -5387.328311  13033.350430     -0.057196                    
P 23  -4105.186838  15884.511848  20867.656557    193.783717                    
V 23 -25566.232532   6785.061233 -10391.090977      0.090349                    
P 24 -14619.418613  14326.174279  16289.728911   -455.739104                    
V 24    947.326955 -21851.995068  19985.605727     -0.046939                    
P 25 -13956.762298  15984.367176 -16147.447736    493.075166                    
V 25 -19841.429989   3416.953364  21238.985487      0.008827                    
P 26  18734.777258   7306.961715 -17675.525508    170.610942                    
V 26 -20222.647138   9134.948667 -17443.302604     -0.049043                    
P 27  21767.557838  10792.628938  10938.156655    -16.744742                    
V 27   8575.581269  11480.432007 -27249.657223     -0.024548                    
P 28   6874.990263  19978.566889 -16111.982633   -191.552637                    
V 28  -6464.164449  19467.830037  21396.699850     -0.147711                    
P 29  -2913.890502  17420.575662 -19854.880930   -602.804431                    
V 29 -17171.571128 -18336.447265 -13708.081825      0.011493                    
P 30  -3217.495887 -23181.509198  12437.685354   -409.592952                    
V 30   7097.321471 -14382.014790 -25520.731737      0.054789                    
P 31  12569.624169  10332.206565 -21135.498795   -228.033606                    
V 31  -8267.836459  25138.508367   7839.743243      0.000042                    
P 32  14604.657150  21234.443615   7057.904852   -617.641730                    
V 32  -7883.014935  -4297.626491  29939.472323     -0.006852                    
EOF
